IRIDIUM 7               
1 24793U 97020B   24142.94427659  .00000884  00000+0  30239-3 0  9991
2 24793  86.3956 340.8289 0002061  81.1547 278.9883 14.35221651415761
IRIDIUM 5               
1 24795U 97020D   24142.85064481  .00009591  00000+0  90985-3 0  9991
2 24795  86.3915 263.0567 0124301  96.0483 265.4923 14.87672199427155
IRIDIUM 4               
1 24796U 97020E   24142.89835048  .00000923  00000+0  31041-3 0  9999
2 24796  86.3949 337.9856 0002254  85.4108 274.7346 14.36146356416293
IRIDIUM 914             
1 24836U 97030A   24142.92990302  .00001029  00000+0  32071-3 0  9996
2 24836  86.3941 347.7249 0003930  80.5305 279.6338 14.40003245550807
IRIDIUM 16              
1 24841U 97030F   24142.72812661  .00000962  00000+0  31262-3 0  9997
2 24841  86.4060   9.7123 0000192  19.4962 340.6243 14.37896979410730
IRIDIUM 911             
1 24842U 97030G   24142.67465999  .00001246  00000+0  34044-3 0  9997
2 24842  86.4484   8.8840 0013200 331.0986  28.9485 14.46532719418461
IRIDIUM 17              
1 24870U 97034B   24142.75024124  .00001027  00000+0  34021-3 0  9994
2 24870  86.3989  39.2952 0001744 131.3994 228.7353 14.36992413407353
IRIDIUM 920             
1 24871U 97034C   24142.75756803  .00000936  00000+0  28701-3 0  9997
2 24871  86.4005  19.4388 0009659 299.3168  60.7066 14.40709890410201
